NORAD_CAT_ID,OBJECT_NAME,OBJECT_TYPE,EPOCH,MEAN_MOTION,ECCENTRICITY,INCLINATION,RA_OF_ASC_NODE,ARG_OF_PERICENTER,MEAN_ANOMALY,BSTAR,MEAN_MOTION_DOT,MEAN_MOTION_DDOT,TLE_LINE0,TLE_LINE1,TLE_LINE2,SEMIMAJOR_AXIS,PERIOD,APOGEE,PERIGEE,DECAYED
54785.0,STARLINK-5440,PAYLOAD,2024-07-07 08:40:05,15.0883457,0.0001426,53.2173,208.866,96.567,263.5485,8.3426e-06,-1.55e-06,0.0,0 STARLINK-5440,1 54785U 22175AD  24189.36117647 -.00000155  00000-0  83426-5 0  9995,2 54785  53.2173 208.8660 0001426  96.5670 263.5485 15.08834570 86398,6917.897,95.438,540.748,538.775,0.0
54785.0,STARLINK-5440,PAYLOAD,2024-07-08 10:06:15,15.08839571,0.0001346,53.2165,204.107,93.1864,266.9282,6.6703e-05,7.74e-06,0.0,0 STARLINK-5440,1 54785U 22175AD  24190.42101239  .00000774  00000-0  66703-4 0  9998,2 54785  53.2165 204.1070 0001346  93.1864 266.9282 15.08839571 86558,6917.882,95.438,540.678,538.816,0.0
54785.0,STARLINK-5440,PAYLOAD,2024-07-08 18:03:11,15.08841216,0.0001344,53.2164,202.6199,87.3318,272.7828,5.4312e-05,5.77e-06,0.0,0 STARLINK-5440,1 54785U 22175AD  24190.75221196  .00000577  00000-0  54312-4 0  9993,2 54785  53.2164 202.6199 0001344  87.3318 272.7828 15.08841216 88764,6917.877,95.437,540.671,538.812,0.0
54785.0,STARLINK-5440,PAYLOAD,2024-07-09 08:21:39,15.08838873,0.0001277,53.2159,199.9429,89.6744,270.4395,4.0561e-05,3.58e-06,0.0,0 STARLINK-5440,1 54785U 22175AD  24191.34837398  .00000358  00000-0  40561-4 0  9994,2 54785  53.2159 199.9429 0001277  89.6744 270.4395 15.08838873 88854,6917.884,95.438,540.632,538.865,0.0
54785.0,STARLINK-5440,PAYLOAD,2024-07-10 05:01:40,15.08842601,0.0001273,53.2158,196.0771,89.5674,270.5464,1.6648e-05,-2.3e-07,0.0,0 STARLINK-5440,1 54785U 22175AD  24192.20949209 -.00000023  00000-0  16648-4 0  9994,2 54785  53.2158 196.0771 0001273  89.5674 270.5464 15.08842601 86825,6917.872,95.437,540.618,538.857,0.0
54785.0,STARLINK-5440,PAYLOAD,2024-07-10 06:37:03,15.08842647,0.0001271,53.2158,195.7796,89.5513,270.5625,1.6763e-05,-2.1e-07,0.0,0 STARLINK-5440,1 54785U 22175AD  24192.27573189 -.00000021  00000-0  16763-4 0  9997,2 54785  53.2158 195.7796 0001271  89.5513 270.5625 15.08842647 88997,6917.872,95.437,540.617,538.858,0.0
54785.0,STARLINK-5440,PAYLOAD,2024-07-11 06:27:50,15.08839868,0.0001275,53.2158,191.3192,89.5964,270.5174,2.5826e-05,1.23e-06,0.0,0 STARLINK-5440,1 54785U 22175AD  24193.26933225  .00000123  00000-0  25826-4 0  9990,2 54785  53.2158 191.3192 0001275  89.5964 270.5174 15.08839868 89141,6917.881,95.438,540.628,538.864,0.0
54785.0,STARLINK-5440,PAYLOAD,2024-07-12 06:18:37,15.08838739,0.000133,53.216,186.8582,93.1587,266.9557,7.3001e-06,-1.72e-06,0.0,0 STARLINK-5440,1 54785U 22175AD  24194.26293382 -.00000172  00000-0  73001-5 0  9998,2 54785  53.2160 186.8582 0001330  93.1587 266.9557 15.08838739 89296,6917.884,95.438,540.669,538.829,0.0
54785.0,STARLINK-5440,PAYLOAD,2024-07-13 04:34:01,15.08836754,0.0001285,53.216,182.6953,92.7886,267.3253,1.5296e-05,-4.4e-07,0.0,0 STARLINK-5440,1 54785U 22175AD  24195.19029612 -.00000044  00000-0  15296-4 0  9993,2 54785  53.2160 182.6953 0001285  92.7886 267.3253 15.08836754 87277,6917.89,95.438,540.644,538.866,0.0
54785.0,STARLINK-5440,PAYLOAD,2024-07-13 06:09:24,15.08837295,0.0001265,53.2159,182.3984,92.3852,267.7285,2.1576e-05,5.6e-07,0.0,0 STARLINK-5440,1 54785U 22175AD  24195.25653570  .00000056  00000-0  21576-4 0  9996,2 54785  53.2159 182.3984 0001265  92.3852 267.7285 15.08837295 89444,6917.889,95.438,540.629,538.879,0.0
54785.0,STARLINK-5440,PAYLOAD,2024-07-13 15:41:43,15.08840713,0.0001271,53.2161,180.6141,92.0977,268.016,5.6384e-05,6.1e-06,0.0,0 STARLINK-5440,1 54785U 22175AD  24195.65397280  .00000610  00000-0  56384-4 0  9994,2 54785  53.2161 180.6141 0001271  92.0977 268.0160 15.08840713 89507,6917.878,95.438,540.622,538.864,0.0
54785.0,STARLINK-5440,PAYLOAD,2024-07-14 07:35:35,15.08836096,0.0001417,53.2175,177.6422,95.4695,264.6459,3.684e-05,2.98e-06,0.0,0 STARLINK-5440,1 54785U 22175AD  24196.31637866  .00000298  00000-0  36840-4 0  9992,2 54785  53.2175 177.6422 0001417  95.4695 264.6459 15.08836096 87449,6917.892,95.438,540.738,538.777,0.0
54785.0,STARLINK-5440,PAYLOAD,2024-07-14 15:32:30,15.08842623,0.0001412,53.2176,176.1554,95.4092,264.7062,8.1977e-05,1.017e-05,0.0,0 STARLINK-5440,1 54785U 22175AD  24196.64757332  .00001017  00000-0  81977-4 0  9990,2 54785  53.2176 176.1554 0001412  95.4092 264.7062 15.08842623 87495,6917.872,95.437,540.714,538.761,0.0
54785.0,STARLINK-5440,PAYLOAD,2024-07-15 04:15:36,15.08832377,0.0001485,53.2178,173.7778,101.0991,259.0168,3.7346e-05,3.06e-06,0.0,0 STARLINK-5440,1 54785U 22175AD  24197.17750220  .00000306  00000-0  37346-4 0  9999,2 54785  53.2178 173.7778 0001485 101.0991 259.0168 15.08832377 87578,6917.904,95.438,540.796,538.741,0.0
54785.0,STARLINK-5440,PAYLOAD,2024-07-15 05:50:59,15.08835997,0.0001437,53.2172,173.4817,105.3297,254.7854,3.4235e-05,2.57e-06,0.0,0 STARLINK-5440,1 54785U 22175AD  24197.24374015  .00000257  00000-0  34235-4 0  9990,2 54785  53.2172 173.4817 0001437 105.3297 254.7854 15.08835997 89742,6917.893,95.438,540.752,538.764,0.0
54785.0,STARLINK-5440,PAYLOAD,2024-07-15 21:44:50,15.08839917,0.0001539,53.2183,170.5058,97.7231,262.3935,7.1484e-05,8.5e-06,0.0,0 STARLINK-5440,1 54785U 22175AD  24197.90613709  .00000850  00000-0  71484-4 0  9995,2 54785  53.2183 170.5058 0001539  97.7231 262.3935 15.08839917 89846,6917.881,95.438,540.81,538.681,0.0
54785.0,STARLINK-5440,PAYLOAD,2024-07-16 07:17:09,15.08838664,0.000128,53.2165,168.7207,92.3395,267.7744,5.3769e-05,5.68e-06,0.0,0 STARLINK-5440,1 54785U 22175AD  24198.30357925  .00000568  00000-0  53769-4 0  9997,2 54785  53.2165 168.7207 0001280  92.3395 267.7744 15.08838664 87748,6917.884,95.438,540.635,538.864,0.0
54785.0,STARLINK-5440,PAYLOAD,2024-07-17 03:57:12,15.08808042,0.0001253,53.2152,164.8514,98.8987,261.2147,-0.00020659,-3.571e-05,0.0,0 STARLINK-5440,1 54785U 22175AD  24199.16473260 -.00003571  00000-0 -20659-3 0  9993,2 54785  53.2152 164.8514 0001253  98.8987 261.2147 15.08808042 87877,6917.978,95.44,540.71,538.976,0.0
54785.0,STARLINK-5440,PAYLOAD,2024-07-17 05:32:35,15.08817342,0.0001402,53.2172,164.554,84.568,275.5472,-0.00010881,-2.018e-05,0.0,0 STARLINK-5440,1 54785U 22175AD  24199.23096650 -.00002018  00000-0 -10881-3 0  9996,2 54785  53.2172 164.5540 0001402  84.5680 275.5472 15.08817342 87886,6917.95,95.439,540.785,538.845,0.0
54785.0,STARLINK-5440,PAYLOAD,2024-07-17 15:04:53,15.08827993,0.0001341,53.217,162.7706,94.5964,265.5181,-3.431e-06,-3.42e-06,0.0,0 STARLINK-5440,1 54785U 22175AD  24199.62840148 -.00000342  00000-0 -34310-5 0  9991,2 54785  53.2170 162.7706 0001341  94.5964 265.5181 15.08827993 87942,6917.917,95.438,540.71,538.854,0.0
54785.0,STARLINK-5440,PAYLOAD,2024-07-18 03:47:57,15.08850404,0.00014,53.2175,160.3899,92.1235,267.9917,0.00013257,1.823e-05,0.0,0 STARLINK-5440,1 54785U 22175AD  24200.15830275  .00001823  00000-0  13257-3 0  9990,2 54785  53.2175 160.3899 0001400  92.1235 267.9917 15.08850404 88021,6917.849,95.437,540.682,538.745,0.0
54785.0,STARLINK-5440,PAYLOAD,2024-07-18 14:55:38,15.08863762,0.0001143,53.215,158.3137,90.5008,269.6115,0.0002596,3.849e-05,0.0,0 STARLINK-5440,1 54785U 22175AD  24200.62196970  .00003849  00000-0  25960-3 0  9993,2 54785  53.2150 158.3137 0001143  90.5008 269.6115 15.08863762 88097,6917.808,95.436,540.463,538.882,0.0
54785.0,STARLINK-5440,PAYLOAD,2024-07-19 03:38:45,15.08831359,0.0001356,53.2175,155.9324,96.4999,263.6148,0.00019369,2.795e-05,0.0,0 STARLINK-5440,1 54785U 22175AD  24201.15191435  .00002795  00000-0  19369-3 0  9998,2 54785  53.2175 155.9324 0001356  96.4999 263.6148 15.08831359 88171,6917.907,95.438,540.71,538.834,0.0
54785.0,STARLINK-5440,PAYLOAD,2024-07-20 03:29:31,15.08851037,0.000151,53.2176,151.4692,110.764,249.3514,-3.5123e-05,-8.47e-06,0.0,0 STARLINK-5440,1 54785U 22175AD  24202.14550603 -.00000847  00000-0 -35123-4 0  9999,2 54785  53.2176 151.4692 0001510 110.7640 249.3514 15.08851037 88326,6917.847,95.437,540.756,538.667,0.0
54785.0,STARLINK-5440,PAYLOAD,2024-07-21 01:44:55,15.08832204,0.00012,53.2169,147.3061,113.4917,246.6202,0.00011742,1.581e-05,0.0,0 STARLINK-5440,1 54785U 22175AD  24203.07286997  .00001581  00000-0  11742-3 0  9998,2 54785  53.2169 147.3061 0001200 113.4917 246.6202 15.08832204 88469,6917.904,95.438,540.599,538.939,0.0
54785.0,STARLINK-5440,PAYLOAD,2024-07-21 06:31:05,15.08837242,0.0001152,53.217,146.4153,109.3489,250.7628,7.4692e-06,-1.69e-06,0.0,0 STARLINK-5440,1 54785U 22175AD  24203.27158941 -.00000169  00000-0  74692-5 0  9994,2 54785  53.2170 146.4153 0001152 109.3489 250.7628 15.08837242 90656,6917.889,95.438,540.551,538.957,0.0
54785.0,STARLINK-5440,PAYLOAD,2024-07-22 04:46:29,15.0883666,0.0001113,53.2168,142.2522,100.6585,259.4532,2.1147e-05,4.9e-07,0.0,0 STARLINK-5440,1 54785U 22175AD  24204.19895227  .00000049  00000-0  21147-4 0  9993,2 54785  53.2168 142.2522 0001113 100.6585 259.4532 15.08836660 88633,6917.891,95.438,540.526,538.986,0.0
54785.0,STARLINK-5440,PAYLOAD,2024-07-22 06:21:52,15.08836039,0.0001135,53.2169,141.9556,101.8823,258.2297,1.6156e-05,-3.1e-07,0.0,0 STARLINK-5440,1 54785U 22175AD  24204.26519294 -.00000031  00000-0  16156-4 0  9994,2 54785  53.2169 141.9556 0001135 101.8823 258.2297 15.08836039 90806,6917.892,95.438,540.543,538.972,0.0
54785.0,STARLINK-5440,PAYLOAD,2024-07-23 12:34:11,15.0885123,0.000126,53.2167,136.3053,75.2071,284.906,0.00020035,2.903e-05,0.0,0 STARLINK-5440,1 54785U 22175AD  24205.52374138  .00002903  00000-0  20035-3 0  9999,2 54785  53.2167 136.3053 0001260  75.2071 284.9060 15.08851230 88836,6917.846,95.437,540.583,538.839,0.0
54785.0,STARLINK-5440,PAYLOAD,2024-07-23 18:55:44,15.08847195,0.0003109,53.2167,135.1171,79.6285,280.5058,0.00019304,2.786e-05,0.0,0 STARLINK-5440,1 54785U 22175AD  24205.78871063  .00002786  00000-0  19304-3 0  9992,2 54785  53.2167 135.1171 0003109  79.6285 280.5058 15.08847195 88871,6917.858,95.437,541.874,537.573,0.0
